PROBA-1                 
1 26958U 01049B   23151.45240597  .00002676  00000+0  22031-3 0  9993
2 26958  97.8714 117.6411 0066845 262.0352  97.3280 14.98280992176531
BIRD 2                  
1 26959U 01049C   23151.06679898  .00059540  00000+0  53942-3 0  9998
2 26959  97.7705 275.7655 0005208 188.0206 172.0971 15.67861223200869
CUTE-1 (CO-55)          
1 27844U 03031E   23151.02011742  .00000335  00000+0  16880-3 0  9997
2 27844  98.6776 158.5287 0010028 168.2931 191.8482 14.22773886 33329
CUBESAT XI-IV (CO-57)   
1 27848U 03031J   23151.02530445  .00000287  00000+0  14896-3 0  9998
2 27848  98.6812 158.9559 0009594 183.0175 177.0946 14.22285345 33117
GENESIS 1               
1 29252U 06029A   23150.90824218  .00007290  00000+0  28303-3 0  9998
2 29252  64.5214   6.1693 0027723 214.0860 145.8488 15.26499763931880
GENESIS 2               
1 31789U 07028A   23151.18269369  .00007173  00000+0  27926-3 0  9997
2 31789  64.4957  49.3947 0057597 263.6566  95.7998 15.25253562878879
APRIZESAT 4             
1 35684U 09041D   23150.89643000  .00000708  00000+0  99022-4 0  9991
2 35684  98.2846 181.1551 0045198 317.7439  42.0292 14.80341771746459
APRIZESAT 3             
1 35686U 09041F   23151.20056522  .00001765  00000+0  18454-3 0  9999
2 35686  98.0983 250.5894 0071556 128.3819 232.3854 14.89158647750389
PROBA-2                 
1 36037U 09059B   23150.48429051  .00000234  00000+0  66693-4 0  9998
2 36037  98.2264 335.6499 0014606 116.3981 243.8716 14.53528690719750
APRIZESAT 5             
1 37792U 11044E   23151.26068958  .00000911  00000+0  13559-3 0  9990
2 37792  98.2793  41.0979 0056377 336.0652  23.7937 14.76529408634449
APRIZESAT 6             
1 37793U 11044F   23151.18212236  .00000739  00000+0  12051-3 0  9996
2 37793  98.3562  19.2934 0046911  34.8918  82.5836 14.73410688633204
PROBA-V                 
1 39159U 13021A   23151.05295302  .00000102  00000+0  63142-4 0  9994
2 39159  98.3205 173.7304 0004913 141.0152 219.1382 14.23114795522767
APRIZESAT 7             
1 39416U 13066A   23150.86636635  .00001165  00000+0  13915-3 0  9997
2 39416  97.6184 119.7538 0038365 294.2488  65.4721 14.85574404515598
APRIZESAT 8             
1 39425U 13066K   23151.17164657  .00001224  00000+0  15533-3 0  9996
2 39425  97.6771 112.3199 0050075 343.4448  16.5128 14.82588151514731
BUGSAT-1 (TITA)         
1 40014U 14033E   23151.40887165  .00004024  00000+0  33127-3 0  9999
2 40014  98.1409 169.6224 0028175 330.9883  28.9771 14.99419357488218
SAUDISAT 4              
1 40016U 14033G   23151.46243060  .00000725  00000+0  10979-3 0  9991
2 40016  97.6410 332.2182 0049101  91.9949 268.6886 14.76159860481742
APRIZESAT 9             
1 40018U 14033J   23151.38579411  .00000865  00000+0  14386-3 0  9997
2 40018  97.7521 309.1160 0070404 175.2547 184.9343 14.70893967479918
APRIZESAT 10            
1 40019U 14033K   23151.36295865  .00000699  00000+0  12474-3 0  9995
2 40019  97.8135 299.6422 0082028 225.5909 133.8562 14.67884072479000
TDS 1                   
1 40076U 14037H   23151.19971647  .00004212  00000+0  45980-3 0  9995
2 40076  98.3477  47.4085 0007468  37.7075 322.4662 14.88482048481453
TIANTUO 2               
1 40144U 14053B   23151.44409394  .00011038  00000+0  23720-3 0  9994
2 40144  97.1607 230.1140 0009456  27.9832 332.1923 15.44793899488676
TECHNOSAT               
1 42829U 17042E   23151.37373555  .00002215  00000+0  21493-3 0  9990
2 42829  97.3902 349.8235 0011870 283.8185  76.1714 14.93544460319989
FLYING LAPTOP           
1 42831U 17042G   23151.20045617  .00000998  00000+0  10084-3 0  9990
2 42831  97.3923 349.9711 0011912 285.4650  74.5255 14.93036788319955
HAWK-A                  
1 43765U 18099H   23151.44119527  .00002951  00000+0  24599-3 0  9995
2 43765  97.5704 215.1484 0015105 178.0507 182.0777 14.99277202245235
HAWK-B                  
1 43794U 18099AN  23151.17462069  .00002891  00000+0  24115-3 0  9996
2 43794  97.5703 214.8885 0015143 179.1740 180.9511 14.99275653245185
HAWK-C                  
1 43799U 18099AT  23151.17441831  .00002992  00000+0  24939-3 0  9991
2 43799  97.5701 214.7887 0015033 178.8899 181.2361 14.99277253245183
SALSAT                  
1 46495U 20068K   23150.79831876  .00004084  00000+0  27210-3 0  9994
2 46495  97.7690  98.6201 0015701 173.0191 187.1258 15.07582734146454
